{
  "norad_id": 37677,
  "name": "ZHONGXING-10",
  "history": [
    {
      "epoch": "2026-03-28T22:02:16.368000",
      "apogee_km": 35796.62520035607,
      "perigee_km": 35776.71666464266,
      "latitude_deg": 0.8308019691791356,
      "longitude_deg": -164.14847999997437,
      "semi_major_axis_km": 42164.80793249937,
      "eccentricity": 0.00023608,
      "inclination_deg": 0.8395,
      "raan_deg": 85.1033,
      "arg_perigee_deg": 291.0498,
      "mean_anomaly_deg": 226.3086,
      "mean_motion_rev_day": 1.00271514
    },
    {
      "epoch": "2026-03-29T03:10:21.520128",
      "apogee_km": 35796.69261404534,
      "perigee_km": 35776.68961958672,
      "latitude_deg": -0.7649529133647766,
      "longitude_deg": -143.60942207998596,
      "semi_major_axis_km": 42164.82811681604,
      "eccentricity": 0.0002372,
      "inclination_deg": 0.8399,
      "raan_deg": 85.0987,
      "arg_perigee_deg": 291.4246,
      "mean_anomaly_deg": 303.1701,
      "mean_motion_rev_day": 1.00271442
    }
  ]
}